{"type": "FeatureCollection", "features": [{"id": "0", "type": "Feature", "properties": {"facility_id": "osm-0", "facility_type": "healthcare", "name": "Oaj Ayurvedic and Infertility Center", "osm_tag_key": "amenity", "osm_tag_value": "clinic", "existing_facility": true, "source_type": "osm", "source_reference": "OpenStreetMap via OSMnx", "observed_or_estimated": "OBSERVED", "modelled_or_interpolated": "NOT_APPLICABLE", "timestamp": "2026-10-08T21:02:27.902350+00:00", "assumptions_version": "2026-10-09-prompt-1-facilities", "computation_mode": "FULL"}, "geometry": {"type": "Point", "coordinates": [75.8580663, 22.716335499999996]}}, {"id": "1", "type": "Feature", "properties": {"facility_id": "osm-1", "facility_type": "healthcare", "name": "Khushaal Dawakhana", "osm_tag_key": "amenity", "osm_tag_value": "clinic", "existing_facility": true, "source_type": "osm", "source_reference": "OpenStreetMap via OSMnx", "observed_or_estimated": "OBSERVED", "modelled_or_interpolated": "NOT_APPLICABLE", "timestamp": "2026-10-08T21:02:27.902571+00:00", "assumptions_version": "2026-10-09-prompt-1-facilities", "computation_mode": "FULL"}, "geometry": {"type": "Point", "coordinates": [75.8569563, 22.7165424]}}, {"id": "2", "type": "Feature", "properties": {"facility_id": "osm-2", "facility_type": "healthcare", "name": "Dr.N.P.Chabra", "osm_tag_key": "amenity", "osm_tag_value": "clinic", "existing_facility": true, "source_type": "osm", "source_reference": "OpenStreetMap via OSMnx", "observed_or_estimated": "OBSERVED", "modelled_or_interpolated": "NOT_APPLICABLE", "timestamp": "2026-10-08T21:02:27.902725+00:00", "assumptions_version": "2026-10-09-prompt-1-facilities", "computation_mode": "FULL"}, "geometry": {"type": "Point", "coordinates": [75.8566602, 22.716555299999992]}}, {"id": "3", "type": "Feature", "properties": {"facility_id": "osm-3", "facility_type": "healthcare", "name": "Usmaan Bhai", "osm_tag_key": "amenity", "osm_tag_value": "clinic", "existing_facility": true, "source_type": "osm", "source_reference": "OpenStreetMap via OSMnx", "observed_or_estimated": "OBSERVED", "modelled_or_interpolated": "NOT_APPLICABLE", "timestamp": "2026-10-08T21:02:27.902870+00:00", "assumptions_version": "2026-10-09-prompt-1-facilities", "computation_mode": "FULL"}, "geometry": {"type": "Point", "coordinates": [75.8557072, 22.715929999999993]}}, {"id": "4", "type": "Feature", "properties": {"facility_id": "osm-4", "facility_type": "healthcare", "name": "Multani Ayurvedic Clinic", "osm_tag_key": "amenity", "osm_tag_value": "hospital", "existing_facility": true, "source_type": "osm", "source_reference": "OpenStreetMap via OSMnx", "observed_or_estimated": "OBSERVED", "modelled_or_interpolated": "NOT_APPLICABLE", "timestamp": "2026-10-08T21:02:27.903017+00:00", "assumptions_version": "2026-10-09-prompt-1-facilities", "computation_mode": "FULL"}, "geometry": {"type": "Point", "coordinates": [75.8557001, 22.715923500000006]}}, {"id": "5", "type": "Feature", "properties": {"facility_id": "osm-5", "facility_type": "healthcare", "name": "Tanish Hospital", "osm_tag_key": "amenity", "osm_tag_value": "hospital", "existing_facility": true, "source_type": "osm", "source_reference": "OpenStreetMap via OSMnx", "observed_or_estimated": "OBSERVED", "modelled_or_interpolated": "NOT_APPLICABLE", "timestamp": "2026-10-08T21:02:27.903147+00:00", "assumptions_version": "2026-10-09-prompt-1-facilities", "computation_mode": "FULL"}, "geometry": {"type": "Point", "coordinates": [75.854975, 22.716265399999997]}}, {"id": "6", "type": "Feature", "properties": {"facility_id": "osm-6", "facility_type": "healthcare", "name": "Yash Deep Clinic", "osm_tag_key": "amenity", "osm_tag_value": "clinic", "existing_facility": true, "source_type": "osm", "source_reference": "OpenStreetMap via OSMnx", "observed_or_estimated": "OBSERVED", "modelled_or_interpolated": "NOT_APPLICABLE", "timestamp": "2026-10-08T21:02:27.903286+00:00", "assumptions_version": "2026-10-09-prompt-1-facilities", "computation_mode": "FULL"}, "geometry": {"type": "Point", "coordinates": [75.8524135, 22.7183795]}}, {"id": "7", "type": "Feature", "properties": {"facility_id": "osm-7", "facility_type": "healthcare", "name": "\u0939\u0947\u0932\u094d\u0925 \u0915\u0947\u092f\u0930 \u092a\u094b\u0932\u0940 \u0915\u094d\u0932\u093f\u0928\u093f\u0915", "osm_tag_key": "amenity", "osm_tag_value": "clinic", "existing_facility": true, "source_type": "osm", "source_reference": "OpenStreetMap via OSMnx", "observed_or_estimated": "OBSERVED", "modelled_or_interpolated": "NOT_APPLICABLE", "timestamp": "2026-10-08T21:02:27.903425+00:00", "assumptions_version": "2026-10-09-prompt-1-facilities", "computation_mode": "FULL"}, "geometry": {"type": "Point", "coordinates": [75.8542932, 22.716382200000005]}}, {"id": "8", "type": "Feature", "properties": {"facility_id": "osm-8", "facility_type": "healthcare", "name": "Holi Homeo Clinic", "osm_tag_key": "amenity", "osm_tag_value": "hospital", "existing_facility": true, "source_type": "osm", "source_reference": "OpenStreetMap via OSMnx", "observed_or_estimated": "OBSERVED", "modelled_or_interpolated": "NOT_APPLICABLE", "timestamp": "2026-10-08T21:02:27.903552+00:00", "assumptions_version": "2026-10-09-prompt-1-facilities", "computation_mode": "FULL"}, "geometry": {"type": "Point", "coordinates": [75.8563593, 22.719147899999996]}}, {"id": "9", "type": "Feature", "properties": {"facility_id": "osm-9", "facility_type": "healthcare", "name": "Dr. L.L.Jain", "osm_tag_key": "amenity", "osm_tag_value": "clinic", "existing_facility": true, "source_type": "osm", "source_reference": "OpenStreetMap via OSMnx", "observed_or_estimated": "OBSERVED", "modelled_or_interpolated": "NOT_APPLICABLE", "timestamp": "2026-10-08T21:02:27.903676+00:00", "assumptions_version": "2026-10-09-prompt-1-facilities", "computation_mode": "FULL"}, "geometry": {"type": "Point", "coordinates": [75.8552581, 22.718888399999994]}}, {"id": "10", "type": "Feature", "properties": {"facility_id": "osm-10", "facility_type": "healthcare", "name": "Rajas Eye And Retina Research Center", "osm_tag_key": "amenity", "osm_tag_value": "clinic", "existing_facility": true, "source_type": "osm", "source_reference": "OpenStreetMap via OSMnx", "observed_or_estimated": "OBSERVED", "modelled_or_interpolated": "NOT_APPLICABLE", "timestamp": "2026-10-08T21:02:27.903801+00:00", "assumptions_version": "2026-10-09-prompt-1-facilities", "computation_mode": "FULL"}, "geometry": {"type": "Point", "coordinates": [75.8549765, 22.718930499999992]}}, {"id": "11", "type": "Feature", "properties": {"facility_id": "osm-11", "facility_type": "healthcare", "name": "Dr.Rawal's Clinic", "osm_tag_key": "amenity", "osm_tag_value": "clinic", "existing_facility": true, "source_type": "osm", "source_reference": "OpenStreetMap via OSMnx", "observed_or_estimated": "OBSERVED", "modelled_or_interpolated": "NOT_APPLICABLE", "timestamp": "2026-10-08T21:02:27.903934+00:00", "assumptions_version": "2026-10-09-prompt-1-facilities", "computation_mode": "FULL"}, "geometry": {"type": "Point", "coordinates": [75.8538999, 22.718826]}}, {"id": "12", "type": "Feature", "properties": {"facility_id": "osm-12", "facility_type": "healthcare", "name": "Saurabh Hospital", "osm_tag_key": "amenity", "osm_tag_value": "hospital", "existing_facility": true, "source_type": "osm", "source_reference": "OpenStreetMap via OSMnx", "observed_or_estimated": "OBSERVED", "modelled_or_interpolated": "NOT_APPLICABLE", "timestamp": "2026-10-08T21:02:27.904061+00:00", "assumptions_version": "2026-10-09-prompt-1-facilities", "computation_mode": "FULL"}, "geometry": {"type": "Point", "coordinates": [75.8531524, 22.7189904]}}, {"id": "13", "type": "Feature", "properties": {"facility_id": "osm-13", "facility_type": "healthcare", "name": "Dr.Virendra Koria", "osm_tag_key": "amenity", "osm_tag_value": "clinic", "existing_facility": true, "source_type": "osm", "source_reference": "OpenStreetMap via OSMnx", "observed_or_estimated": "OBSERVED", "modelled_or_interpolated": "NOT_APPLICABLE", "timestamp": "2026-10-08T21:02:27.904185+00:00", "assumptions_version": "2026-10-09-prompt-1-facilities", "computation_mode": "FULL"}, "geometry": {"type": "Point", "coordinates": [75.853058, 22.719004700000006]}}, {"id": "14", "type": "Feature", "properties": {"facility_id": "osm-14", "facility_type": "healthcare", "name": "Dr Suman Bndi", "osm_tag_key": "amenity", "osm_tag_value": "clinic", "existing_facility": true, "source_type": "osm", "source_reference": "OpenStreetMap via OSMnx", "observed_or_estimated": "OBSERVED", "modelled_or_interpolated": "NOT_APPLICABLE", "timestamp": "2026-10-08T21:02:27.904310+00:00", "assumptions_version": "2026-10-09-prompt-1-facilities", "computation_mode": "FULL"}, "geometry": {"type": "Point", "coordinates": [75.8543663, 22.721027899999996]}}, {"id": "15", "type": "Feature", "properties": {"facility_id": "osm-15", "facility_type": "healthcare", "name": "Dr.Rao Clinic", "osm_tag_key": "amenity", "osm_tag_value": "clinic", "existing_facility": true, "source_type": "osm", "source_reference": "OpenStreetMap via OSMnx", "observed_or_estimated": "OBSERVED", "modelled_or_interpolated": "NOT_APPLICABLE", "timestamp": "2026-10-08T21:02:27.904434+00:00", "assumptions_version": "2026-10-09-prompt-1-facilities", "computation_mode": "FULL"}, "geometry": {"type": "Point", "coordinates": [75.8566421, 22.713473600000004]}}, {"id": "16", "type": "Feature", "properties": {"facility_id": "osm-16", "facility_type": "healthcare", "name": "Yashlok Clinic", "osm_tag_key": "amenity", "osm_tag_value": "clinic", "existing_facility": true, "source_type": "osm", "source_reference": "OpenStreetMap via OSMnx", "observed_or_estimated": "OBSERVED", "modelled_or_interpolated": "NOT_APPLICABLE", "timestamp": "2026-10-08T21:02:27.904564+00:00", "assumptions_version": "2026-10-09-prompt-1-facilities", "computation_mode": "FULL"}, "geometry": {"type": "Point", "coordinates": [75.8565643, 22.7183887]}}, {"id": "17", "type": "Feature", "properties": {"facility_id": "osm-17", "facility_type": "healthcare", "name": "Dr Vijay Sharma", "osm_tag_key": "amenity", "osm_tag_value": "clinic", "existing_facility": true, "source_type": "osm", "source_reference": "OpenStreetMap via OSMnx", "observed_or_estimated": "OBSERVED", "modelled_or_interpolated": "NOT_APPLICABLE", "timestamp": "2026-10-08T21:02:27.904687+00:00", "assumptions_version": "2026-10-09-prompt-1-facilities", "computation_mode": "FULL"}, "geometry": {"type": "Point", "coordinates": [75.8562291, 22.718368899999994]}}, {"id": "18", "type": "Feature", "properties": {"facility_id": "osm-18", "facility_type": "healthcare", "name": "Motiwale Clinic", "osm_tag_key": "amenity", "osm_tag_value": "clinic", "existing_facility": true, "source_type": "osm", "source_reference": "OpenStreetMap via OSMnx", "observed_or_estimated": "OBSERVED", "modelled_or_interpolated": "NOT_APPLICABLE", "timestamp": "2026-10-08T21:02:27.904810+00:00", "assumptions_version": "2026-10-09-prompt-1-facilities", "computation_mode": "FULL"}, "geometry": {"type": "Point", "coordinates": [75.856111, 22.718299600000005]}}, {"id": "19", "type": "Feature", "properties": {"facility_id": "osm-19", "facility_type": "healthcare", "name": "Abhinav Nursing Home", "osm_tag_key": "amenity", "osm_tag_value": "clinic", "existing_facility": true, "source_type": "osm", "source_reference": "OpenStreetMap via OSMnx", "observed_or_estimated": "OBSERVED", "modelled_or_interpolated": "NOT_APPLICABLE", "timestamp": "2026-10-08T21:02:27.904934+00:00", "assumptions_version": "2026-10-09-prompt-1-facilities", "computation_mode": "FULL"}, "geometry": {"type": "Point", "coordinates": [75.855757, 22.717755300000004]}}, {"id": "20", "type": "Feature", "properties": {"facility_id": "osm-20", "facility_type": "healthcare", "name": "Dr K B Roy", "osm_tag_key": "amenity", "osm_tag_value": "clinic", "existing_facility": true, "source_type": "osm", "source_reference": "OpenStreetMap via OSMnx", "observed_or_estimated": "OBSERVED", "modelled_or_interpolated": "NOT_APPLICABLE", "timestamp": "2026-10-08T21:02:27.905057+00:00", "assumptions_version": "2026-10-09-prompt-1-facilities", "computation_mode": "FULL"}, "geometry": {"type": "Point", "coordinates": [75.8513904, 22.7191606]}}, {"id": "21", "type": "Feature", "properties": {"facility_id": "osm-21", "facility_type": "healthcare", "name": "Dr Govind Jhanwar", "osm_tag_key": "amenity", "osm_tag_value": "clinic", "existing_facility": true, "source_type": "osm", "source_reference": "OpenStreetMap via OSMnx", "observed_or_estimated": "OBSERVED", "modelled_or_interpolated": "NOT_APPLICABLE", "timestamp": "2026-10-08T21:02:27.905180+00:00", "assumptions_version": "2026-10-09-prompt-1-facilities", "computation_mode": "FULL"}, "geometry": {"type": "Point", "coordinates": [75.8507884, 22.7192561]}}, {"id": "22", "type": "Feature", "properties": {"facility_id": "osm-22", "facility_type": "healthcare", "name": "Dr Neeta Meratia Clinic", "osm_tag_key": "amenity", "osm_tag_value": "clinic", "existing_facility": true, "source_type": "osm", "source_reference": "OpenStreetMap via OSMnx", "observed_or_estimated": "OBSERVED", "modelled_or_interpolated": "NOT_APPLICABLE", "timestamp": "2026-10-08T21:02:27.905304+00:00", "assumptions_version": "2026-10-09-prompt-1-facilities", "computation_mode": "FULL"}, "geometry": {"type": "Point", "coordinates": [75.8557248, 22.7173619]}}, {"id": "23", "type": "Feature", "properties": {"facility_id": "osm-23", "facility_type": "healthcare", "name": "Indore Hospital", "osm_tag_key": "amenity", "osm_tag_value": "hospital", "existing_facility": true, "source_type": "osm", "source_reference": "OpenStreetMap via OSMnx", "observed_or_estimated": "OBSERVED", "modelled_or_interpolated": "NOT_APPLICABLE", "timestamp": "2026-10-08T21:02:27.905433+00:00", "assumptions_version": "2026-10-09-prompt-1-facilities", "computation_mode": "FULL"}, "geometry": {"type": "Point", "coordinates": [75.8548128, 22.7191705]}}, {"id": "24", "type": "Feature", "properties": {"facility_id": "osm-24", "facility_type": "healthcare", "name": "Dr Suhas Bande", "osm_tag_key": "amenity", "osm_tag_value": "clinic", "existing_facility": true, "source_type": "osm", "source_reference": "OpenStreetMap via OSMnx", "observed_or_estimated": "OBSERVED", "modelled_or_interpolated": "NOT_APPLICABLE", "timestamp": "2026-10-08T21:02:27.905557+00:00", "assumptions_version": "2026-10-09-prompt-1-facilities", "computation_mode": "FULL"}, "geometry": {"type": "Point", "coordinates": [75.8577074, 22.7145421]}}, {"id": "25", "type": "Feature", "properties": {"facility_id": "osm-25", "facility_type": "healthcare", "name": "Dawani Clinic", "osm_tag_key": "amenity", "osm_tag_value": "clinic", "existing_facility": true, "source_type": "osm", "source_reference": "OpenStreetMap via OSMnx", "observed_or_estimated": "OBSERVED", "modelled_or_interpolated": "NOT_APPLICABLE", "timestamp": "2026-10-08T21:02:27.905683+00:00", "assumptions_version": "2026-10-09-prompt-1-facilities", "computation_mode": "FULL"}, "geometry": {"type": "Point", "coordinates": [75.8540846, 22.716052]}}, {"id": "26", "type": "Feature", "properties": {"facility_id": "osm-26", "facility_type": "healthcare", "name": "Dr R N Jaiswal", "osm_tag_key": "amenity", "osm_tag_value": "clinic", "existing_facility": true, "source_type": "osm", "source_reference": "OpenStreetMap via OSMnx", "observed_or_estimated": "OBSERVED", "modelled_or_interpolated": "NOT_APPLICABLE", "timestamp": "2026-10-08T21:02:27.905814+00:00", "assumptions_version": "2026-10-09-prompt-1-facilities", "computation_mode": "FULL"}, "geometry": {"type": "Point", "coordinates": [75.8546814, 22.7161261]}}, {"id": "27", "type": "Feature", "properties": {"facility_id": "osm-27", "facility_type": "healthcare", "name": "Jain Homeo", "osm_tag_key": "amenity", "osm_tag_value": "clinic", "existing_facility": true, "source_type": "osm", "source_reference": "OpenStreetMap via OSMnx", "observed_or_estimated": "OBSERVED", "modelled_or_interpolated": "NOT_APPLICABLE", "timestamp": "2026-10-08T21:02:27.905937+00:00", "assumptions_version": "2026-10-09-prompt-1-facilities", "computation_mode": "FULL"}, "geometry": {"type": "Point", "coordinates": [75.8546734, 22.7161434]}}, {"id": "28", "type": "Feature", "properties": {"facility_id": "osm-28", "facility_type": "healthcare", "name": "Aarogya Hospital", "osm_tag_key": "amenity", "osm_tag_value": "hospital", "existing_facility": true, "source_type": "osm", "source_reference": "OpenStreetMap via OSMnx", "observed_or_estimated": "OBSERVED", "modelled_or_interpolated": "NOT_APPLICABLE", "timestamp": "2026-10-08T21:02:27.906060+00:00", "assumptions_version": "2026-10-09-prompt-1-facilities", "computation_mode": "FULL"}, "geometry": {"type": "Point", "coordinates": [75.8544863, 22.7134478]}}, {"id": "29", "type": "Feature", "properties": {"facility_id": "osm-29", "facility_type": "healthcare", "name": "Dr. Waghmare Nursing Home", "osm_tag_key": "amenity", "osm_tag_value": "hospital", "existing_facility": true, "source_type": "osm", "source_reference": "OpenStreetMap via OSMnx", "observed_or_estimated": "OBSERVED", "modelled_or_interpolated": "NOT_APPLICABLE", "timestamp": "2026-10-08T21:02:27.906181+00:00", "assumptions_version": "2026-10-09-prompt-1-facilities", "computation_mode": "FULL"}, "geometry": {"type": "Point", "coordinates": [75.8551294, 22.716461299999995]}}, {"id": "30", "type": "Feature", "properties": {"facility_id": "osm-30", "facility_type": "healthcare", "name": "\u0905\u0930\u094d\u092a\u0923 \u0928\u0930\u094d\u0938\u093f\u0902\u0917 \u0939\u094b\u092e", "osm_tag_key": "amenity", "osm_tag_value": "hospital", "existing_facility": true, "source_type": "osm", "source_reference": "OpenStreetMap via OSMnx", "observed_or_estimated": "OBSERVED", "modelled_or_interpolated": "NOT_APPLICABLE", "timestamp": "2026-10-08T21:02:27.906305+00:00", "assumptions_version": "2026-10-09-prompt-1-facilities", "computation_mode": "FULL"}, "geometry": {"type": "Point", "coordinates": [75.85545120000002, 22.720249199999998]}}, {"id": "31", "type": "Feature", "properties": {"facility_id": "osm-31", "facility_type": "healthcare", "name": "Vyas Children Hospital", "osm_tag_key": "amenity", "osm_tag_value": "hospital", "existing_facility": true, "source_type": "osm", "source_reference": "OpenStreetMap via OSMnx", "observed_or_estimated": "OBSERVED", "modelled_or_interpolated": "NOT_APPLICABLE", "timestamp": "2026-10-08T21:02:27.906429+00:00", "assumptions_version": "2026-10-09-prompt-1-facilities", "computation_mode": "FULL"}, "geometry": {"type": "Point", "coordinates": [75.8523338, 22.7160382]}}, {"id": "32", "type": "Feature", "properties": {"facility_id": "osm-32", "facility_type": "healthcare", "name": "Unique Hospital, Jawahar Marg", "osm_tag_key": "amenity", "osm_tag_value": "hospital", "existing_facility": true, "source_type": "osm", "source_reference": "OpenStreetMap via OSMnx", "observed_or_estimated": "OBSERVED", "modelled_or_interpolated": "NOT_APPLICABLE", "timestamp": "2026-10-08T21:02:27.906550+00:00", "assumptions_version": "2026-10-09-prompt-1-facilities", "computation_mode": "FULL"}, "geometry": {"type": "Point", "coordinates": [75.8501874, 22.715779100000002]}}, {"id": "33", "type": "Feature", "properties": {"facility_id": "osm-33", "facility_type": "healthcare", "name": "Tanish Medical Care", "osm_tag_key": "amenity", "osm_tag_value": "hospital", "existing_facility": true, "source_type": "osm", "source_reference": "OpenStreetMap via OSMnx", "observed_or_estimated": "OBSERVED", "modelled_or_interpolated": "NOT_APPLICABLE", "timestamp": "2026-10-08T21:02:27.906671+00:00", "assumptions_version": "2026-10-09-prompt-1-facilities", "computation_mode": "FULL"}, "geometry": {"type": "Point", "coordinates": [75.8547941, 22.716479899999996]}}, {"id": "34", "type": "Feature", "properties": {"facility_id": "osm-34", "facility_type": "healthcare", "name": "Gill Diagnostic and Stone Clinic", "osm_tag_key": "amenity", "osm_tag_value": "clinic", "existing_facility": true, "source_type": "osm", "source_reference": "OpenStreetMap via OSMnx", "observed_or_estimated": "OBSERVED", "modelled_or_interpolated": "NOT_APPLICABLE", "timestamp": "2026-10-08T21:02:27.906795+00:00", "assumptions_version": "2026-10-09-prompt-1-facilities", "computation_mode": "FULL"}, "geometry": {"type": "Point", "coordinates": [75.8546828, 22.716484799999993]}}, {"id": "35", "type": "Feature", "properties": {"facility_id": "osm-35", "facility_type": "healthcare", "name": "Government Civil Dispensary", "osm_tag_key": "amenity", "osm_tag_value": "clinic", "existing_facility": true, "source_type": "osm", "source_reference": "OpenStreetMap via OSMnx", "observed_or_estimated": "OBSERVED", "modelled_or_interpolated": "NOT_APPLICABLE", "timestamp": "2026-10-08T21:02:27.906917+00:00", "assumptions_version": "2026-10-09-prompt-1-facilities", "computation_mode": "FULL"}, "geometry": {"type": "Point", "coordinates": [75.8566964, 22.713922199999992]}}]}